start=new Date('2022-07-30T00:00:00.000Z').valueOf();
sats=[{"ARG_OF_PERICENTER":"67.9981","APOAPSIS":"548.115","TLE_LINE1":"1 44733U 19074W   22210.76159946  .00001048  00000-0  89246-4 0  9992","PERIOD":"95.592","OBJECT_ID":"2019-074W","MEAN_MOTION_DDOT":"0.0000000000000","MEAN_MOTION":"15.06405347","GP_ID":"209130760","LAUNCH_DATE":"2019-11-11","MEAN_ELEMENT_THEORY":"SGP4","SITE":"AFETR","REV_AT_EPOCH":"14995","BSTAR":"0.00008924600000","MEAN_MOTION_DOT":"0.00001048","TIME_SYSTEM":"UTC","MEAN_ANOMALY":"292.1149","CLASSIFICATION_TYPE":"U","INCLINATION":"53.0557","SEMIMAJOR_AXIS":"6925.332","OBJECT_TYPE":"PAYLOAD","NORAD_CAT_ID":"44733","ECCENTRICITY":"0.00013250","FILE":"3524848","PERIAPSIS":"546.280","COUNTRY_CODE":"US","OBJECT_NAME":"STARLINK-1028","EPOCH":"2022-07-29T18:16:42.193344","RCS_SIZE":"LARGE","DECAY_DATE":null,"ELEMENT_SET_NO":"999","TLE_LINE2":"2 44733  53.0557 347.5119 0001325  67.9981 292.1149 15.06405347149950","REF_FRAME":"TEME","EPHEMERIS_TYPE":"0","RA_OF_ASC_NODE":"347.5119","CENTER_NAME":"EARTH"},{"EPOCH":"2022-07-29T13:51:19.025856","RCS_SIZE":"LARGE","OBJECT_NAME":"STARLINK-1029","ELEMENT_SET_NO":"999","DECAY_DATE":null,"REF_FRAME":"TEME","TLE_LINE2":"2 44734  53.0549 268.3527 0001489  66.1723 293.9422 15.06407793151022","CENTER_NAME":"EARTH","EPHEMERIS_TYPE":"0","RA_OF_ASC_NODE":"268.3527","OBJECT_ID":"2019-074X","APOAPSIS":"548.221","ARG_OF_PERICENTER":"66.1723","PERIOD":"95.592","TLE_LINE1":"1 44734U 19074X   22210.57730354 -.00000181  00000-0  67581-5 0  9997","GP_ID":"209129527","LAUNCH_DATE":"2019-11-11","MEAN_MOTION_DDOT":"0.0000000000000","MEAN_MOTION":"15.06407793","BSTAR":"0.00000675810000","MEAN_MOTION_DOT":"-0.00000181","TIME_SYSTEM":"UTC","MEAN_ANOMALY":"293.9422","MEAN_ELEMENT_THEORY":"SGP4","SITE":"AFETR","REV_AT_EPOCH":"15102","FILE":"3524848","PERIAPSIS":"546.158","ECCENTRICITY":"0.00014890","COUNTRY_CODE":"US","CLASSIFICATION_TYPE":"U","INCLINATION":"53.0549","NORAD_CAT_ID":"44734","OBJECT_TYPE":"PAYLOAD","SEMIMAJOR_AXIS":"6925.325"},{"ARG_OF_PERICENTER":"69.5296","APOAPSIS":"548.229","PERIOD":"95.593","TLE_LINE1":"1 44735U 19074Y   22210.83717891 -.00001692  00000-0 -94715-4 0  9995","OBJECT_ID":"2019-074Y","MEAN_MOTION_DDOT":"0.0000000000000","MEAN_MOTION":"15.06391687","LAUNCH_DATE":"2019-11-11","GP_ID":"209129777","MEAN_ELEMENT_THEORY":"SGP4","SITE":"AFETR","REV_AT_EPOCH":"14968","MEAN_MOTION_DOT":"-0.00001692","BSTAR":"-0.00009471500000","TIME_SYSTEM":"UTC","MEAN_ANOMALY":"290.5847","CLASSIFICATION_TYPE":"U","INCLINATION":"53.0555","NORAD_CAT_ID":"44735","OBJECT_TYPE":"PAYLOAD","SEMIMAJOR_AXIS":"6925.374","FILE":"3524848","PERIAPSIS":"546.249","ECCENTRICITY":"0.00014300","COUNTRY_CODE":"US","OBJECT_NAME":"STARLINK-1030","EPOCH":"2022-07-29T20:05:32.257824","RCS_SIZE":"LARGE","DECAY_DATE":null,"ELEMENT_SET_NO":"999","TLE_LINE2":"2 44735  53.0555   7.1861 0001430  69.5296 290.5847 15.06391687149685","REF_FRAME":"TEME","EPHEMERIS_TYPE":"0","RA_OF_ASC_NODE":"7.1861","CENTER_NAME":"EARTH"},{"ELEMENT_SET_NO":"999","DECAY_DATE":null,"RCS_SIZE":"LARGE","EPOCH":"2022-07-29T17:15:39.751776","OBJECT_NAME":"STARLINK-1031","CENTER_NAME":"EARTH","RA_OF_ASC_NODE":"7.7176","EPHEMERIS_TYPE":"0","REF_FRAME":"TEME","TLE_LINE2":"2 44736  53.0559   7.7176 0001363  83.7609 276.3536 15.06397557149674","GP_ID":"209130525","LAUNCH_DATE":"2019-11-11","MEAN_MOTION":"15.06397557","MEAN_MOTION_DDOT":"0.0000000000000","OBJECT_ID":"2019-074Z","PERIOD":"95.592","TLE_LINE1":"1 44736U 19074Z   22210.71921009  .00000139  00000-0  28201-4 0  9991","APOAPSIS":"548.165","ARG_OF_PERICENTER":"83.7609","COUNTRY_CODE":"US","FILE":"3524848","PERIAPSIS":"546.277","ECCENTRICITY":"0.00013630","SEMIMAJOR_AXIS":"6925.356","OBJECT_TYPE":"PAYLOAD","NORAD_CAT_ID":"44736","CLASSIFICATION_TYPE":"U","INCLINATION":"53.0559","TIME_SYSTEM":"UTC","MEAN_ANOMALY":"276.3536","MEAN_MOTION_DOT":"0.00000139","BSTAR":"0.00002820100000","REV_AT_EPOCH":"14967","MEAN_ELEMENT_THEORY":"SGP4","SITE":"AFETR"},{"ELEMENT_SET_NO":"999","DECAY_DATE":null,"RCS_SIZE":"LARGE","EPOCH":"2022-07-29T17:31:35.575968","OBJECT_NAME":"STARLINK-1032","CENTER_NAME":"EARTH","RA_OF_ASC_NODE":"7.6637","EPHEMERIS_TYPE":"0","REF_FRAME":"TEME","TLE_LINE2":"2 44737  53.0557   7.6637 0001308  66.1120 294.0006 15.06408483149676","GP_ID":"209131260","LAUNCH_DATE":"2019-11-11","MEAN_MOTION":"15.06408483","MEAN_MOTION_DDOT":"0.0000000000000","OBJECT_ID":"2019-074AA","PERIOD":"95.592","TLE_LINE1":"1 44737U 19074AA  22210.73027287 -.00003531  00000-0 -21820-3 0  9999","ARG_OF_PERICENTER":"66.1120","APOAPSIS":"548.093","COUNTRY_CODE":"US","ECCENTRICITY":"0.00013080","FILE":"3524848","PERIAPSIS":"546.282","OBJECT_TYPE":"PAYLOAD","SEMIMAJOR_AXIS":"6925.323","NORAD_CAT_ID":"44737","CLASSIFICATION_TYPE":"U","INCLINATION":"53.0557","TIME_SYSTEM":"UTC","MEAN_ANOMALY":"294.0006","BSTAR":"-0.00021820000000","MEAN_MOTION_DOT":"-0.00003531","REV_AT_EPOCH":"14967","MEAN_ELEMENT_THEORY":"SGP4","SITE":"AFETR"},{"REV_AT_EPOCH":"14966","SITE":"AFETR","MEAN_ELEMENT_THEORY":"SGP4","MEAN_ANOMALY":"276.4106","TIME_SYSTEM":"UTC","BSTAR":"0.00004532200000","MEAN_MOTION_DOT":"0.00000394","OBJECT_TYPE":"PAYLOAD","SEMIMAJOR_AXIS":"6925.335","NORAD_CAT_ID":"44738","INCLINATION":"53.0565","CLASSIFICATION_TYPE":"U","COUNTRY_CODE":"US","PERIAPSIS":"546.278","FILE":"3524848","ECCENTRICITY":"0.00013310","PERIOD":"95.592","TLE_LINE1":"1 44738U 19074AB  22210.71552542  .00000394  00000-0  45322-4 0  9991","ARG_OF_PERICENTER":"83.7035","APOAPSIS":"548.122","OBJECT_ID":"2019-074AB","MEAN_MOTION":"15.06404394","MEAN_MOTION_DDOT":"0.0000000000000","GP_ID":"209130027","LAUNCH_DATE":"2019-11-11","TLE_LINE2":"2 44738  53.0565   7.7338 0001331  83.7035 276.4106 15.06404394149662","REF_FRAME":"TEME","RA_OF_ASC_NODE":"7.7338","EPHEMERIS_TYPE":"0","CENTER_NAME":"EARTH","OBJECT_NAME":"STARLINK-1033","RCS_SIZE":"LARGE","EPOCH":"2022-07-29T17:10:21.396288","DECAY_DATE":null,"ELEMENT_SET_NO":"999"},{"EPOCH":"2022-07-29T16:43:44.536800","RCS_SIZE":"LARGE","OBJECT_NAME":"STARLINK-1034","ELEMENT_SET_NO":"999","DECAY_DATE":null,"REF_FRAME":"TEME","TLE_LINE2":"2 44739  52.9985 354.4829 0001811 103.6420 256.4775 15.16066597149803","CENTER_NAME":"EARTH","EPHEMERIS_TYPE":"0","RA_OF_ASC_NODE":"354.4829","OBJECT_ID":"2019-074AC","ARG_OF_PERICENTER":"103.6420","APOAPSIS":"518.993","TLE_LINE1":"1 44739U 19074AC  22210.69704325  .00009407  00000-0  49830-3 0  9998","PERIOD":"94.983","GP_ID":"209130276","LAUNCH_DATE":"2019-11-11","MEAN_MOTION_DDOT":"0.0000000000000","MEAN_MOTION":"15.16066597","BSTAR":"0.00049830000000","MEAN_MOTION_DOT":"0.00009407","MEAN_ANOMALY":"256.4775","TIME_SYSTEM":"UTC","SITE":"AFETR","MEAN_ELEMENT_THEORY":"SGP4","REV_AT_EPOCH":"14980","FILE":"3524848","ECCENTRICITY":"0.00018110","PERIAPSIS":"516.496","COUNTRY_CODE":"US","INCLINATION":"52.9985","CLASSIFICATION_TYPE":"U","NORAD_CAT_ID":"44739","OBJECT_TYPE":"PAYLOAD","SEMIMAJOR_AXIS":"6895.879"},{"GP_ID":"209131025","LAUNCH_DATE":"2019-11-11","MEAN_MOTION":"15.06399766","MEAN_MOTION_DDOT":"0.0000000000000","OBJECT_ID":"2019-074AD","PERIOD":"95.592","TLE_LINE1":"1 44740U 19074AD  22210.85928478 -.00001229  00000-0 -63606-4 0  9999","APOAPSIS":"548.236","ARG_OF_PERICENTER":"69.3301","COUNTRY_CODE":"US","ECCENTRICITY":"0.00014750","FILE":"3524848","PERIAPSIS":"546.193","SEMIMAJOR_AXIS":"6925.349","OBJECT_TYPE":"PAYLOAD","NORAD_CAT_ID":"44740","CLASSIFICATION_TYPE":"U","INCLINATION":"53.0551","TIME_SYSTEM":"UTC","MEAN_ANOMALY":"290.7847","MEAN_MOTION_DOT":"-0.00001229","BSTAR":"-0.00006360600000","REV_AT_EPOCH":"14969","MEAN_ELEMENT_THEORY":"SGP4","SITE":"AFETR","ELEMENT_SET_NO":"999","DECAY_DATE":null,"RCS_SIZE":"LARGE","EPOCH":"2022-07-29T20:37:22.204992","OBJECT_NAME":"STARLINK-1035","CENTER_NAME":"EARTH","RA_OF_ASC_NODE":"7.0910","EPHEMERIS_TYPE":"0","REF_FRAME":"TEME","TLE_LINE2":"2 44740  53.0551   7.0910 0001475  69.3301 290.7847 15.06399766149694"},{"OBJECT_ID":"2019-074AE","PERIOD":"95.592","TLE_LINE1":"1 44741U 19074AE  22210.80398961 -.00000090  00000-0  12843-4 0  9994","ARG_OF_PERICENTER":"87.7851","APOAPSIS":"548.109","GP_ID":"209130761","LAUNCH_DATE":"2019-11-11","MEAN_MOTION":"15.06403052","MEAN_MOTION_DDOT":"0.0000000000000","TIME_SYSTEM":"UTC","MEAN_ANOMALY":"272.3288","BSTAR":"0.00001284300000","MEAN_MOTION_DOT":"-0.00000090","REV_AT_EPOCH":"14968","MEAN_ELEMENT_THEORY":"SGP4","SITE":"AFETR","COUNTRY_CODE":"US","FILE":"3524848","ECCENTRICITY":"0.00013070","PERIAPSIS":"546.299","OBJECT_TYPE":"PAYLOAD","NORAD_CAT_ID":"44741","SEMIMAJOR_AXIS":"6925.339","CLASSIFICATION_TYPE":"U","INCLINATION":"53.0568","RCS_SIZE":"LARGE","EPOCH":"2022-07-29T19:17:44.702304","OBJECT_NAME":"STARLINK-1036","ELEMENT_SET_NO":"999","DECAY_DATE":null,"REF_FRAME":"TEME","TLE_LINE2":"2 44741  53.0568   7.3266 0001307  87.7851 272.3288 15.06403052149686","CENTER_NAME":"EARTH","RA_OF_ASC_NODE":"7.3266","EPHEMERIS_TYPE":"0"},{"BSTAR":"0.00059121000000","MEAN_MOTION_DOT":"0.00011681","TIME_SYSTEM":"UTC","MEAN_ANOMALY":"227.6941","MEAN_ELEMENT_THEORY":"SGP4","SITE":"AFETR","REV_AT_EPOCH":"14990","FILE":"3524848","ECCENTRICITY":"0.00010470","PERIAPSIS":"512.855","COUNTRY_CODE":"US","CLASSIFICATION_TYPE":"U","INCLINATION":"52.9948","NORAD_CAT_ID":"44742","OBJECT_TYPE":"PAYLOAD","SEMIMAJOR_AXIS":"6891.712","OBJECT_ID":"2019-074AF","APOAPSIS":"514.299","ARG_OF_PERICENTER":"132.4141","TLE_LINE1":"1 44742U 19074AF  22210.78496506  .00011681  00000-0  59121-3 0  9992","PERIOD":"94.897","LAUNCH_DATE":"2019-11-11","GP_ID":"209129528","MEAN_MOTION_DDOT":"0.0000000000000","MEAN_MOTION":"15.17441916","REF_FRAME":"TEME","TLE_LINE2":"2 44742  52.9948 348.2437 0001047 132.4141 227.6941 15.17441916149902","CENTER_NAME":"EARTH","EPHEMERIS_TYPE":"0","RA_OF_ASC_NODE":"348.2437","EPOCH":"2022-07-29T18:50:20.981184","RCS_SIZE":"LARGE","OBJECT_NAME":"STARLINK-1037","ELEMENT_SET_NO":"999","DECAY_DATE":null}];
